start=new Date('2022-04-16T00:00:00.000Z').valueOf();
sats=[{"RA_OF_ASC_NODE":"183.1734","MEAN_ANOMALY":"317.9671","BSTAR":"0.00005976500000","TLE_LINE2":"2 47888  53.0549 183.1734 0002035  42.1474 317.9671 15.06405302 61605","FILE":"3403567","OBJECT_ID":"2021-021AE","ELEMENT_SET_NO":"999","CENTER_NAME":"EARTH","GP_ID":"201342638","OBJECT_TYPE":"PAYLOAD","NORAD_CAT_ID":"47888","MEAN_MOTION":"15.06405302","TLE_LINE1":"1 47888U 21021AE  22105.92012547  .00000609  00000-0  59765-4 0  9992","EPHEMERIS_TYPE":"0","LAUNCH_DATE":"2021-03-14","PERIAPSIS":"545.788","COUNTRY_CODE":"US","MEAN_ELEMENT_THEORY":"SGP4","REV_AT_EPOCH":"6160","INCLINATION":"53.0549","CLASSIFICATION_TYPE":"U","APOAPSIS":"548.607","ARG_OF_PERICENTER":"42.1474","ECCENTRICITY":"0.00020350","EPOCH":"2022-04-15T22:04:58.840608","SEMIMAJOR_AXIS":"6925.332","PERIOD":"95.592","OBJECT_NAME":"STARLINK-2348","SITE":"AFETR","MEAN_MOTION_DDOT":"0.0000000000000","MEAN_MOTION_DOT":"0.00000609","TIME_SYSTEM":"UTC","REF_FRAME":"TEME","RCS_SIZE":"LARGE","DECAY_DATE":null},{"SEMIMAJOR_AXIS":"6925.282","OBJECT_NAME":"STARLINK-2349","PERIOD":"95.591","SITE":"AFETR","MEAN_MOTION_DDOT":"0.0000000000000","MEAN_MOTION_DOT":"0.00004859","REF_FRAME":"TEME","TIME_SYSTEM":"UTC","DECAY_DATE":null,"RCS_SIZE":"LARGE","INCLINATION":"53.0537","CLASSIFICATION_TYPE":"U","APOAPSIS":"548.445","ECCENTRICITY":"0.00018740","ARG_OF_PERICENTER":"41.8834","EPOCH":"2022-04-15T17:34:17.036832","ELEMENT_SET_NO":"999","CENTER_NAME":"EARTH","OBJECT_ID":"2021-021AF","MEAN_MOTION":"15.06421799","NORAD_CAT_ID":"47889","GP_ID":"201341386","OBJECT_TYPE":"PAYLOAD","TLE_LINE1":"1 47889U 21021AF  22105.73214163  .00004859  00000-0  34469-3 0  9994","LAUNCH_DATE":"2021-03-14","EPHEMERIS_TYPE":"0","PERIAPSIS":"545.849","REV_AT_EPOCH":"6162","COUNTRY_CODE":"US","MEAN_ELEMENT_THEORY":"SGP4","RA_OF_ASC_NODE":"184.0161","BSTAR":"0.00034469000000","MEAN_ANOMALY":"318.2298","TLE_LINE2":"2 47889  53.0537 184.0161 0001874  41.8834 318.2298 15.06421799 61622","FILE":"3403567"},{"ARG_OF_PERICENTER":"37.7896","ECCENTRICITY":"0.00024680","EPOCH":"2022-04-15T19:41:24.034848","INCLINATION":"53.0531","APOAPSIS":"441.313","CLASSIFICATION_TYPE":"U","MEAN_MOTION_DDOT":"0.0000000000000","MEAN_MOTION_DOT":"0.00018417","REF_FRAME":"TEME","TIME_SYSTEM":"UTC","DECAY_DATE":null,"RCS_SIZE":"LARGE","SEMIMAJOR_AXIS":"6817.766","OBJECT_NAME":"STARLINK-2350","PERIOD":"93.373","SITE":"AFETR","MEAN_ANOMALY":"322.3281","BSTAR":"0.00043109000000","TLE_LINE2":"2 47890  53.0531 151.3418 0002468  37.7896 322.3281 15.42196301 61099","FILE":"3403567","RA_OF_ASC_NODE":"151.3418","EPHEMERIS_TYPE":"0","LAUNCH_DATE":"2021-03-14","PERIAPSIS":"437.948","REV_AT_EPOCH":"6109","COUNTRY_CODE":"US","MEAN_ELEMENT_THEORY":"SGP4","ELEMENT_SET_NO":"999","CENTER_NAME":"EARTH","OBJECT_ID":"2021-021AG","NORAD_CAT_ID":"47890","MEAN_MOTION":"15.42196301","GP_ID":"201341636","OBJECT_TYPE":"PAYLOAD","TLE_LINE1":"1 47890U 21021AG  22105.82041707  .00018417  00000-0  43109-3 0  9994"},{"RA_OF_ASC_NODE":"193.9878","TLE_LINE2":"2 47891  53.0542 193.9878 0001506  59.8990 300.2148 15.06406919 61597","FILE":"3403567","MEAN_ANOMALY":"300.2148","BSTAR":"0.00009717500000","TLE_LINE1":"1 47891U 21021AH  22105.73859945  .00001166  00000-0  97175-4 0  9992","OBJECT_ID":"2021-021AH","ELEMENT_SET_NO":"999","CENTER_NAME":"EARTH","OBJECT_TYPE":"PAYLOAD","GP_ID":"201342388","NORAD_CAT_ID":"47891","MEAN_MOTION":"15.06406919","COUNTRY_CODE":"US","MEAN_ELEMENT_THEORY":"SGP4","REV_AT_EPOCH":"6159","LAUNCH_DATE":"2021-03-14","EPHEMERIS_TYPE":"0","PERIAPSIS":"546.149","CLASSIFICATION_TYPE":"U","APOAPSIS":"548.235","INCLINATION":"53.0542","EPOCH":"2022-04-15T17:43:34.992480","ECCENTRICITY":"0.00015060","ARG_OF_PERICENTER":"59.8990","PERIOD":"95.592","OBJECT_NAME":"STARLINK-2351","SITE":"AFETR","SEMIMAJOR_AXIS":"6925.327","TIME_SYSTEM":"UTC","REF_FRAME":"TEME","DECAY_DATE":null,"RCS_SIZE":"LARGE","MEAN_MOTION_DOT":"0.00001166","MEAN_MOTION_DDOT":"0.0000000000000"},{"APOAPSIS":"516.480","CLASSIFICATION_TYPE":"U","INCLINATION":"53.0543","EPOCH":"2022-04-15T17:07:20.616384","ECCENTRICITY":"0.00020220","ARG_OF_PERICENTER":"39.9169","PERIOD":"94.928","OBJECT_NAME":"STARLINK-2352","SITE":"AFETR","SEMIMAJOR_AXIS":"6893.221","TIME_SYSTEM":"UTC","REF_FRAME":"TEME","DECAY_DATE":null,"RCS_SIZE":"LARGE","MEAN_MOTION_DOT":"0.00022753","MEAN_MOTION_DDOT":"0.0000000000000","RA_OF_ASC_NODE":"190.1547","TLE_LINE2":"2 47892  53.0543 190.1547 0002022  39.9169 320.1973 15.16943709 61481","FILE":"3403567","BSTAR":"0.00115150000000","MEAN_ANOMALY":"320.1973","TLE_LINE1":"1 47892U 21021AJ  22105.71343306  .00022753  00000-0  11515-2 0  9997","OBJECT_ID":"2021-021AJ","ELEMENT_SET_NO":"999","CENTER_NAME":"EARTH","GP_ID":"201342139","OBJECT_TYPE":"PAYLOAD","NORAD_CAT_ID":"47892","MEAN_MOTION":"15.16943709","COUNTRY_CODE":"US","MEAN_ELEMENT_THEORY":"SGP4","REV_AT_EPOCH":"6148","LAUNCH_DATE":"2021-03-14","EPHEMERIS_TYPE":"0","PERIAPSIS":"513.692"},{"EPOCH":"2022-04-15T16:41:12.316416","ECCENTRICITY":"0.00017720","ARG_OF_PERICENTER":"49.1447","APOAPSIS":"548.374","CLASSIFICATION_TYPE":"U","INCLINATION":"53.0540","DECAY_DATE":null,"RCS_SIZE":"LARGE","TIME_SYSTEM":"UTC","REF_FRAME":"TEME","MEAN_MOTION_DOT":"0.00003226","MEAN_MOTION_DDOT":"0.0000000000000","SITE":"AFETR","PERIOD":"95.591","OBJECT_NAME":"STARLINK-2354","SEMIMAJOR_AXIS":"6925.282","FILE":"3403567","TLE_LINE2":"2 47894  53.0540 184.1839 0001772  49.1447 310.9695 15.06421854 61513","MEAN_ANOMALY":"310.9695","BSTAR":"0.00023526000000","RA_OF_ASC_NODE":"184.1839","COUNTRY_CODE":"US","MEAN_ELEMENT_THEORY":"SGP4","REV_AT_EPOCH":"6151","PERIAPSIS":"545.919","LAUNCH_DATE":"2021-03-14","EPHEMERIS_TYPE":"0","TLE_LINE1":"1 47894U 21021AL  22105.69528144  .00003226  00000-0  23526-3 0  9991","OBJECT_TYPE":"PAYLOAD","GP_ID":"201340887","NORAD_CAT_ID":"47894","MEAN_MOTION":"15.06421854","OBJECT_ID":"2021-021AL","ELEMENT_SET_NO":"999","CENTER_NAME":"EARTH"},{"FILE":"3403567","TLE_LINE2":"2 47895  53.0539 183.2485 0001606  55.4550 304.6591 15.06416528 61573","MEAN_ANOMALY":"304.6591","BSTAR":"0.00025689000000","RA_OF_ASC_NODE":"183.2485","COUNTRY_CODE":"US","MEAN_ELEMENT_THEORY":"SGP4","REV_AT_EPOCH":"6157","PERIAPSIS":"546.051","EPHEMERIS_TYPE":"0","LAUNCH_DATE":"2021-03-14","TLE_LINE1":"1 47895U 21021AM  22105.90538097  .00003549  00000-0  25689-3 0  9994","GP_ID":"201341137","OBJECT_TYPE":"PAYLOAD","MEAN_MOTION":"15.06416528","NORAD_CAT_ID":"47895","OBJECT_ID":"2021-021AM","CENTER_NAME":"EARTH","ELEMENT_SET_NO":"999","EPOCH":"2022-04-15T21:43:44.915808","ARG_OF_PERICENTER":"55.4550","ECCENTRICITY":"0.00016060","APOAPSIS":"548.275","CLASSIFICATION_TYPE":"U","INCLINATION":"53.0539","DECAY_DATE":null,"RCS_SIZE":"LARGE","TIME_SYSTEM":"UTC","REF_FRAME":"TEME","MEAN_MOTION_DDOT":"0.0000000000000","MEAN_MOTION_DOT":"0.00003549","SITE":"AFETR","PERIOD":"95.591","OBJECT_NAME":"STARLINK-2355","SEMIMAJOR_AXIS":"6925.298"},{"PERIAPSIS":"546.007","EPHEMERIS_TYPE":"0","LAUNCH_DATE":"2021-03-14","COUNTRY_CODE":"US","MEAN_ELEMENT_THEORY":"SGP4","REV_AT_EPOCH":"6131","GP_ID":"201341889","OBJECT_TYPE":"PAYLOAD","MEAN_MOTION":"15.06400106","NORAD_CAT_ID":"47896","OBJECT_ID":"2021-021AN","ELEMENT_SET_NO":"999","CENTER_NAME":"EARTH","TLE_LINE1":"1 47896U 21021AN  22105.76578134 -.00000813  00000-0 -35678-4 0  9998","MEAN_ANOMALY":"311.0140","BSTAR":"-0.00003567800000","FILE":"3403567","TLE_LINE2":"2 47896  53.0544 198.8722 0001742  49.1000 311.0140 15.06400106 61316","RA_OF_ASC_NODE":"198.8722","MEAN_MOTION_DOT":"-0.00000813","MEAN_MOTION_DDOT":"0.0000000000000","DECAY_DATE":null,"RCS_SIZE":"LARGE","TIME_SYSTEM":"UTC","REF_FRAME":"TEME","SEMIMAJOR_AXIS":"6925.348","SITE":"AFETR","PERIOD":"95.592","OBJECT_NAME":"STARLINK-2356","ARG_OF_PERICENTER":"49.1000","ECCENTRICITY":"0.00017420","EPOCH":"2022-04-15T18:22:43.507776","INCLINATION":"53.0544","APOAPSIS":"548.420","CLASSIFICATION_TYPE":"U"},{"REF_FRAME":"TEME","TIME_SYSTEM":"UTC","DECAY_DATE":null,"RCS_SIZE":"LARGE","MEAN_MOTION_DOT":"-0.00000524","MEAN_MOTION_DDOT":"0.0000000000000","OBJECT_NAME":"STARLINK-2357","PERIOD":"95.592","SITE":"AFETR","SEMIMAJOR_AXIS":"6925.332","EPOCH":"2022-04-15T21:42:23.910624","ECCENTRICITY":"0.00017050","ARG_OF_PERICENTER":"52.3557","CLASSIFICATION_TYPE":"U","APOAPSIS":"548.378","INCLINATION":"53.0546","REV_AT_EPOCH":"6160","COUNTRY_CODE":"US","MEAN_ELEMENT_THEORY":"SGP4","LAUNCH_DATE":"2021-03-14","EPHEMERIS_TYPE":"0","PERIAPSIS":"546.016","TLE_LINE1":"1 47897U 21021AP  22105.90444341 -.00000524  00000-0 -16294-4 0  9999","ELEMENT_SET_NO":"999","CENTER_NAME":"EARTH","OBJECT_ID":"2021-021AP","MEAN_MOTION":"15.06405414","NORAD_CAT_ID":"47897","GP_ID":"201342639","OBJECT_TYPE":"PAYLOAD","TLE_LINE2":"2 47897  53.0546 183.2275 0001705  52.3557 307.7587 15.06405414 61608","FILE":"3403567","BSTAR":"-0.00001629400000","MEAN_ANOMALY":"307.7587","RA_OF_ASC_NODE":"183.2275"},{"TIME_SYSTEM":"UTC","REF_FRAME":"TEME","DECAY_DATE":null,"RCS_SIZE":"LARGE","MEAN_MOTION_DOT":"0.00001135","MEAN_MOTION_DDOT":"0.0000000000000","PERIOD":"95.591","OBJECT_NAME":"STARLINK-2358","SITE":"AFETR","SEMIMAJOR_AXIS":"6925.299","EPOCH":"2022-04-15T16:46:30.783360","ECCENTRICITY":"0.00016150","ARG_OF_PERICENTER":"52.0595","APOAPSIS":"548.283","CLASSIFICATION_TYPE":"U","INCLINATION":"53.0544","MEAN_ELEMENT_THEORY":"SGP4","COUNTRY_CODE":"US","REV_AT_EPOCH":"6151","EPHEMERIS_TYPE":"0","LAUNCH_DATE":"2021-03-14","PERIAPSIS":"546.046","TLE_LINE1":"1 47898U 21021AQ  22105.69896740  .00001135  00000-0  95015-4 0  9995","OBJECT_ID":"2021-021AQ","ELEMENT_SET_NO":"999","CENTER_NAME":"EARTH","GP_ID":"201341387","OBJECT_TYPE":"PAYLOAD","MEAN_MOTION":"15.06416052","NORAD_CAT_ID":"47898","TLE_LINE2":"2 47898  53.0544 184.1746 0001615  52.0595 308.0539 15.06416052 61510","FILE":"3403567","MEAN_ANOMALY":"308.0539","BSTAR":"0.00009501500000","RA_OF_ASC_NODE":"184.1746"}];
